STARLINK-2366
1 27906C 21021AY  21325.14219066  .00036748  00000-0  28063-3 0  3257
2 27906  53.0524  53.4873 0008899 317.6252 280.5011 15.71422770    11
